HAWK-11C                
1 62381U 24247E   26068.51221537  .00009223  00000+0  33290-3 0  9992
2 62381  45.0045 114.8762 0005900 329.7040  30.3502 15.28848020 67743
STARLINK-34528          
1 64479U 25133H   26068.45068362  .00007932  00000+0  27991-3 0  9991
2 64479  53.1600 117.7817 0001309  68.2412 291.8728 15.30170743 41132
